{"fetched_at":"2026-07-05T17:36:11.010Z","source":"https://celestrak.org/NORAD/elements/gp.php?GROUP=planet&FORMAT=JSON","constellation":"superdove","records":[{"OBJECT_NAME":"FLOCK 4BE-17","OBJECT_ID":"2024-149AA","EPOCH":"2026-07-05T00:34:49.197792","CLASSIFICATION_TYPE":"U","MEAN_MOTION":15.40335602,"ECCENTRICITY":0.00036419,"INCLINATION":97.3765,"RA_OF_ASC_NODE":269.5399,"ARG_OF_PERICENTER":172.7146,"MEAN_ANOMALY":187.4154,"EPHEMERIS_TYPE":0,"NORAD_CAT_ID":60492,"ELEMENT_SET_NO":999,"REV_AT_EPOCH":10500,"BSTAR":0.00064892581,"MEAN_MOTION_DOT":0.00026154,"MEAN_MOTION_DDOT":0},{"OBJECT_NAME":"FLOCK 4BE-22","OBJECT_ID":"2024-149AC","EPOCH":"2026-07-05T04:25:27.344064","CLASSIFICATION_TYPE":"U","MEAN_MOTION":15.41749892,"ECCENTRICITY":0.00039781,"INCLINATION":97.3727,"RA_OF_ASC_NODE":269.922,"ARG_OF_PERICENTER":183.784,"MEAN_ANOMALY":176.3377,"EPHEMERIS_TYPE":0,"NORAD_CAT_ID":60494,"ELEMENT_SET_NO":999,"REV_AT_EPOCH":10507,"BSTAR":0.00062187963,"MEAN_MOTION_DOT":0.00026263,"MEAN_MOTION_DDOT":0},{"OBJECT_NAME":"FLOCK 4BE-34","OBJECT_ID":"2024-149AD","EPOCH":"2026-07-05T03:16:58.861632","CLASSIFICATION_TYPE":"U","MEAN_MOTION":15.41720122,"ECCENTRICITY":0.00038705,"INCLINATION":97.3777,"RA_OF_ASC_NODE":270.7077,"ARG_OF_PERICENTER":190.7052,"MEAN_ANOMALY":169.4113,"EPHEMERIS_TYPE":0,"NORAD_CAT_ID":60495,"ELEMENT_SET_NO":999,"REV_AT_EPOCH":10509,"BSTAR":0.00063208756,"MEAN_MOTION_DOT":0.0002667,"MEAN_MOTION_DDOT":0},{"OBJECT_NAME":"FLOCK 4BE-32","OBJECT_ID":"2024-149AF","EPOCH":"2026-07-05T05:21:07.122240","CLASSIFICATION_TYPE":"U","MEAN_MOTION":15.42823453,"ECCENTRICITY":0.00040275,"INCLINATION":97.3713,"RA_OF_ASC_NODE":270.3521,"ARG_OF_PERICENTER":187.358,"MEAN_ANOMALY":172.7609,"EPHEMERIS_TYPE":0,"NORAD_CAT_ID":60497,"ELEMENT_SET_NO":999,"REV_AT_EPOCH":10511,"BSTAR":0.00069238102,"MEAN_MOTION_DOT":0.00030333,"MEAN_MOTION_DDOT":0},{"OBJECT_NAME":"FLOCK 4BE-11","OBJECT_ID":"2024-149AK","EPOCH":"2026-07-05T04:59:42.145152","CLASSIFICATION_TYPE":"U","MEAN_MOTION":15.43616389,"ECCENTRICITY":0.00041382,"INCLINATION":97.3692,"RA_OF_ASC_NODE":270.5846,"ARG_OF_PERICENTER":187.4957,"MEAN_ANOMALY":172.6229,"EPHEMERIS_TYPE":0,"NORAD_CAT_ID":60501,"ELEMENT_SET_NO":999,"REV_AT_EPOCH":10513,"BSTAR":0.00064808095,"MEAN_MOTION_DOT":0.00029149,"MEAN_MOTION_DDOT":0},{"OBJECT_NAME":"FLOCK 4BE-24","OBJECT_ID":"2024-149AP","EPOCH":"2026-07-05T04:38:08.391552","CLASSIFICATION_TYPE":"U","MEAN_MOTION":15.43802133,"ECCENTRICITY":0.00042149,"INCLINATION":97.3708,"RA_OF_ASC_NODE":270.8328,"ARG_OF_PERICENTER":201.2673,"MEAN_ANOMALY":158.84,"EPHEMERIS_TYPE":0,"NORAD_CAT_ID":60505,"ELEMENT_SET_NO":999,"REV_AT_EPOCH":10514,"BSTAR":0.00076554151,"MEAN_MOTION_DOT":0.00034689,"MEAN_MOTION_DDOT":0},{"OBJECT_NAME":"FLOCK 4BE-29","OBJECT_ID":"2024-149AT","EPOCH":"2026-07-05T04:36:22.184352","CLASSIFICATION_TYPE":"U","MEAN_MOTION":15.4481018,"ECCENTRICITY":0.00026997,"INCLINATION":97.3805,"RA_OF_ASC_NODE":272.343,"ARG_OF_PERICENTER":201.8017,"MEAN_ANOMALY":158.3118,"EPHEMERIS_TYPE":0,"NORAD_CAT_ID":60509,"ELEMENT_SET_NO":999,"REV_AT_EPOCH":10519,"BSTAR":0.00075864937,"MEAN_MOTION_DOT":0.00035566,"MEAN_MOTION_DDOT":0},{"OBJECT_NAME":"FLOCK 4BE-2","OBJECT_ID":"2024-149AV","EPOCH":"2026-07-04T18:30:13.121280","CLASSIFICATION_TYPE":"U","MEAN_MOTION":15.54828365,"ECCENTRICITY":0.00047399,"INCLINATION":97.3825,"RA_OF_ASC_NODE":273.5921,"ARG_OF_PERICENTER":202.037,"MEAN_ANOMALY":158.0681,"EPHEMERIS_TYPE":0,"NORAD_CAT_ID":60511,"ELEMENT_SET_NO":999,"REV_AT_EPOCH":10523,"BSTAR":0.0015046965,"MEAN_MOTION_DOT":0.00101305,"MEAN_MOTION_DDOT":0},{"OBJECT_NAME":"FLOCK 4BE-13","OBJECT_ID":"2024-149AW","EPOCH":"2026-07-05T04:40:32.501568","CLASSIFICATION_TYPE":"U","MEAN_MOTION":15.42406741,"ECCENTRICITY":0.00042908,"INCLINATION":97.3717,"RA_OF_ASC_NODE":270.7988,"ARG_OF_PERICENTER":186.4208,"MEAN_ANOMALY":173.6985,"EPHEMERIS_TYPE":0,"NORAD_CAT_ID":60512,"ELEMENT_SET_NO":999,"REV_AT_EPOCH":10514,"BSTAR":0.00057767602,"MEAN_MOTION_DOT":0.00024927,"MEAN_MOTION_DDOT":0},{"OBJECT_NAME":"FLOCK 4BE-27","OBJECT_ID":"2024-149AX","EPOCH":"2026-07-05T04:35:27.144960","CLASSIFICATION_TYPE":"U","MEAN_MOTION":15.34784182,"ECCENTRICITY":0.00030027,"INCLINATION":97.382,"RA_OF_ASC_NODE":268.0543,"ARG_OF_PERICENTER":219.1109,"MEAN_ANOMALY":140.9918,"EPHEMERIS_TYPE":0,"NORAD_CAT_ID":60513,"ELEMENT_SET_NO":999,"REV_AT_EPOCH":10490,"BSTAR":0.00048562141,"MEAN_MOTION_DOT":0.00016314,"MEAN_MOTION_DDOT":0},{"OBJECT_NAME":"FLOCK 4BE-9","OBJECT_ID":"2024-149AY","EPOCH":"2026-07-04T11:48:53.534592","CLASSIFICATION_TYPE":"U","MEAN_MOTION":15.41334973,"ECCENTRICITY":0.00026569,"INCLINATION":97.3787,"RA_OF_ASC_NODE":269.9371,"ARG_OF_PERICENTER":203.896,"MEAN_ANOMALY":156.2164,"EPHEMERIS_TYPE":0,"NORAD_CAT_ID":60514,"ELEMENT_SET_NO":999,"REV_AT_EPOCH":10498,"BSTAR":0.00060391778,"MEAN_MOTION_DOT":0.00025146,"MEAN_MOTION_DDOT":0},{"OBJECT_NAME":"FLOCK 4BE-6","OBJECT_ID":"2024-149BA","EPOCH":"2026-07-05T04:25:57.473472","CLASSIFICATION_TYPE":"U","MEAN_MOTION":15.40109178,"ECCENTRICITY":0.00033878,"INCLINATION":97.3782,"RA_OF_ASC_NODE":269.9607,"ARG_OF_PERICENTER":205.5099,"MEAN_ANOMALY":154.598,"EPHEMERIS_TYPE":0,"NORAD_CAT_ID":60516,"ELEMENT_SET_NO":999,"REV_AT_EPOCH":10504,"BSTAR":0.00063429641,"MEAN_MOTION_DOT":0.0002537,"MEAN_MOTION_DDOT":0},{"OBJECT_NAME":"FLOCK 4BE-14","OBJECT_ID":"2024-149BB","EPOCH":"2026-07-05T03:38:07.102176","CLASSIFICATION_TYPE":"U","MEAN_MOTION":15.41607019,"ECCENTRICITY":0.00043176,"INCLINATION":97.369,"RA_OF_ASC_NODE":270.0804,"ARG_OF_PERICENTER":210.5955,"MEAN_ANOMALY":149.5041,"EPHEMERIS_TYPE":0,"NORAD_CAT_ID":60517,"ELEMENT_SET_NO":999,"REV_AT_EPOCH":10509,"BSTAR":0.00067747971,"MEAN_MOTION_DOT":0.00028493,"MEAN_MOTION_DDOT":0},{"OBJECT_NAME":"FLOCK 4BE-1","OBJECT_ID":"2024-149BC","EPOCH":"2026-07-04T18:13:40.916640","CLASSIFICATION_TYPE":"U","MEAN_MOTION":15.43223831,"ECCENTRICITY":0.0004092,"INCLINATION":97.3775,"RA_OF_ASC_NODE":271.0254,"ARG_OF_PERICENTER":210.7594,"MEAN_ANOMALY":149.3415,"EPHEMERIS_TYPE":0,"NORAD_CAT_ID":60518,"ELEMENT_SET_NO":999,"REV_AT_EPOCH":10508,"BSTAR":0.00069698508,"MEAN_MOTION_DOT":0.00030951,"MEAN_MOTION_DDOT":0},{"OBJECT_NAME":"FLOCK 4BE-28","OBJECT_ID":"2024-149BD","EPOCH":"2026-07-04T19:29:20.576544","CLASSIFICATION_TYPE":"U","MEAN_MOTION":15.45585758,"ECCENTRICITY":0.00041519,"INCLINATION":97.3744,"RA_OF_ASC_NODE":271.8577,"ARG_OF_PERICENTER":205.2896,"MEAN_ANOMALY":154.815,"EPHEMERIS_TYPE":0,"NORAD_CAT_ID":60519,"ELEMENT_SET_NO":999,"REV_AT_EPOCH":10516,"BSTAR":0.00081168207,"MEAN_MOTION_DOT":0.000391,"MEAN_MOTION_DDOT":0},{"OBJECT_NAME":"FLOCK 4BE-5","OBJECT_ID":"2024-149CV","EPOCH":"2026-07-05T05:09:02.414592","CLASSIFICATION_TYPE":"U","MEAN_MOTION":15.40823081,"ECCENTRICITY":0.00030672,"INCLINATION":97.3837,"RA_OF_ASC_NODE":270.394,"ARG_OF_PERICENTER":203.6949,"MEAN_ANOMALY":156.4157,"EPHEMERIS_TYPE":0,"NORAD_CAT_ID":60559,"ELEMENT_SET_NO":999,"REV_AT_EPOCH":10505,"BSTAR":0.00059908899,"MEAN_MOTION_DOT":0.00024524,"MEAN_MOTION_DDOT":0}]}
